[{"OBJECT_NAME":"FLOCK 4BE-32","OBJECT_ID":"2024-149AF","EPOCH":"2026-03-05T16:51:01.770048","MEAN_MOTION":15.38268536,"ECCENTRICITY":0.0002654,"INCLINATION":97.377,"RA_OF_ASC_NODE":147.7828,"ARG_OF_PERICENTER":279.4993,"MEAN_ANOMALY":80.5952,"EPHEMERIS_TYPE":0,"CLASSIFICATION_TYPE":"U","NORAD_CAT_ID":60497,"ELEMENT_SET_NO":999,"REV_AT_EPOCH":8640,"BSTAR":0.00062934,"MEAN_MOTION_DOT":0.00023694,"MEAN_MOTION_DDOT":0},{"OBJECT_NAME":"FLOCK 4BE-30","OBJECT_ID":"2024-149AH","EPOCH":"2026-03-05T04:36:57.652416","MEAN_MOTION":15.38054269,"ECCENTRICITY":0.00020141,"INCLINATION":97.3851,"RA_OF_ASC_NODE":147.8291,"ARG_OF_PERICENTER":284.1286,"MEAN_ANOMALY":75.9735,"EPHEMERIS_TYPE":0,"CLASSIFICATION_TYPE":"U","NORAD_CAT_ID":60499,"ELEMENT_SET_NO":999,"REV_AT_EPOCH":8570,"BSTAR":0.00050618374,"MEAN_MOTION_DOT":0.00018897,"MEAN_MOTION_DDOT":0},{"OBJECT_NAME":"FLOCK 4BE-11","OBJECT_ID":"2024-149AK","EPOCH":"2026-03-05T04:01:14.000160","MEAN_MOTION":15.39066,"ECCENTRICITY":0.00030248,"INCLINATION":97.3752,"RA_OF_ASC_NODE":147.3717,"ARG_OF_PERICENTER":284.2425,"MEAN_ANOMALY":75.8484,"EPHEMERIS_TYPE":0,"CLASSIFICATION_TYPE":"U","NORAD_CAT_ID":60501,"ELEMENT_SET_NO":999,"REV_AT_EPOCH":8633,"BSTAR":0.00066364924,"MEAN_MOTION_DOT":0.00025655,"MEAN_MOTION_DDOT":0},{"OBJECT_NAME":"FLOCK 4BE-24","OBJECT_ID":"2024-149AP","EPOCH":"2026-03-05T11:22:19.920288","MEAN_MOTION":15.3894732,"ECCENTRICITY":0.0002925,"INCLINATION":97.3767,"RA_OF_ASC_NODE":147.9262,"ARG_OF_PERICENTER":293.8468,"MEAN_ANOMALY":66.2471,"EPHEMERIS_TYPE":0,"CLASSIFICATION_TYPE":"U","NORAD_CAT_ID":60505,"ELEMENT_SET_NO":999,"REV_AT_EPOCH":8639,"BSTAR":0.00064214,"MEAN_MOTION_DOT":0.00024722,"MEAN_MOTION_DDOT":0},{"OBJECT_NAME":"TANAGER-1","OBJECT_ID":"2024-149AR","EPOCH":"2026-03-05T08:23:36.927744","MEAN_MOTION":15.43548696,"ECCENTRICITY":0.0006725,"INCLINATION":97.377,"RA_OF_ASC_NODE":157.6642,"ARG_OF_PERICENTER":235.9479,"MEAN_ANOMALY":124.1131,"EPHEMERIS_TYPE":0,"CLASSIFICATION_TYPE":"U","NORAD_CAT_ID":60507,"ELEMENT_SET_NO":999,"REV_AT_EPOCH":8701,"BSTAR":0.00012407,"MEAN_MOTION_DOT":5.482e-5,"MEAN_MOTION_DDOT":0},{"OBJECT_NAME":"FLOCK 4BE-29","OBJECT_ID":"2024-149AT","EPOCH":"2026-03-05T16:46:25.145760","MEAN_MOTION":15.40232206,"ECCENTRICITY":0.0001938,"INCLINATION":97.3852,"RA_OF_ASC_NODE":149.2876,"ARG_OF_PERICENTER":311.5151,"MEAN_ANOMALY":48.5929,"EPHEMERIS_TYPE":0,"CLASSIFICATION_TYPE":"U","NORAD_CAT_ID":60509,"ELEMENT_SET_NO":999,"REV_AT_EPOCH":8646,"BSTAR":0.00070224,"MEAN_MOTION_DOT":0.00028217,"MEAN_MOTION_DDOT":0},{"OBJECT_NAME":"FLOCK 4BE-2","OBJECT_ID":"2024-149AV","EPOCH":"2026-03-05T17:43:18.332832","MEAN_MOTION":15.42789267,"ECCENTRICITY":0.0002775,"INCLINATION":97.3855,"RA_OF_ASC_NODE":149.8909,"ARG_OF_PERICENTER":290.0933,"MEAN_ANOMALY":70.0016,"EPHEMERIS_TYPE":0,"CLASSIFICATION_TYPE":"U","NORAD_CAT_ID":60511,"ELEMENT_SET_NO":999,"REV_AT_EPOCH":8650,"BSTAR":0.001141,"MEAN_MOTION_DOT":0.00050106,"MEAN_MOTION_DDOT":0},{"OBJECT_NAME":"FLOCK 4BE-13","OBJECT_ID":"2024-149AW","EPOCH":"2026-03-05T17:44:47.090688","MEAN_MOTION":15.38643043,"ECCENTRICITY":0.0003417,"INCLINATION":97.3768,"RA_OF_ASC_NODE":148.2964,"ARG_OF_PERICENTER":282.9829,"MEAN_ANOMALY":77.1035,"EPHEMERIS_TYPE":0,"CLASSIFICATION_TYPE":"U","NORAD_CAT_ID":60512,"ELEMENT_SET_NO":999,"REV_AT_EPOCH":8644,"BSTAR":0.0006012,"MEAN_MOTION_DOT":0.00022908,"MEAN_MOTION_DDOT":0},{"OBJECT_NAME":"FLOCK 4BE-27","OBJECT_ID":"2024-149AX","EPOCH":"2026-03-05T16:55:29.324064","MEAN_MOTION":15.32483669,"ECCENTRICITY":0.0002856,"INCLINATION":97.3873,"RA_OF_ASC_NODE":146.6369,"ARG_OF_PERICENTER":326.0647,"MEAN_ANOMALY":34.0412,"EPHEMERIS_TYPE":0,"CLASSIFICATION_TYPE":"U","NORAD_CAT_ID":60513,"ELEMENT_SET_NO":999,"REV_AT_EPOCH":8628,"BSTAR":0.00042149,"MEAN_MOTION_DOT":0.00013152,"MEAN_MOTION_DDOT":0},{"OBJECT_NAME":"FLOCK 4BE-9","OBJECT_ID":"2024-149AY","EPOCH":"2026-03-05T15:45:33.763392","MEAN_MOTION":15.37417003,"ECCENTRICITY":0.0001585,"INCLINATION":97.3835,"RA_OF_ASC_NODE":148.1647,"ARG_OF_PERICENTER":320.216,"MEAN_ANOMALY":39.8968,"EPHEMERIS_TYPE":0,"CLASSIFICATION_TYPE":"U","NORAD_CAT_ID":60514,"ELEMENT_SET_NO":999,"REV_AT_EPOCH":8639,"BSTAR":0.00053664,"MEAN_MOTION_DOT":0.00019631,"MEAN_MOTION_DDOT":0},{"OBJECT_NAME":"FLOCK 4BE-6","OBJECT_ID":"2024-149BA","EPOCH":"2026-03-05T16:16:00.744096","MEAN_MOTION":15.36461734,"ECCENTRICITY":0.0002299,"INCLINATION":97.3838,"RA_OF_ASC_NODE":147.7173,"ARG_OF_PERICENTER":311.2604,"MEAN_ANOMALY":48.8442,"EPHEMERIS_TYPE":0,"CLASSIFICATION_TYPE":"U","NORAD_CAT_ID":60516,"ELEMENT_SET_NO":999,"REV_AT_EPOCH":8636,"BSTAR":0.00052352,"MEAN_MOTION_DOT":0.00018566,"MEAN_MOTION_DDOT":0},{"OBJECT_NAME":"FLOCK 4BE-14","OBJECT_ID":"2024-149BB","EPOCH":"2026-03-05T16:17:58.781184","MEAN_MOTION":15.37508035,"ECCENTRICITY":0.0003206,"INCLINATION":97.3755,"RA_OF_ASC_NODE":147.7896,"ARG_OF_PERICENTER":307.1364,"MEAN_ANOMALY":52.9587,"EPHEMERIS_TYPE":0,"CLASSIFICATION_TYPE":"U","NORAD_CAT_ID":60517,"ELEMENT_SET_NO":999,"REV_AT_EPOCH":8640,"BSTAR":0.00054741,"MEAN_MOTION_DOT":0.00020089,"MEAN_MOTION_DDOT":0},{"OBJECT_NAME":"FLOCK 4BE-1","OBJECT_ID":"2024-149BC","EPOCH":"2026-03-05T15:56:15.384480","MEAN_MOTION":15.38773894,"ECCENTRICITY":0.0003186,"INCLINATION":97.3826,"RA_OF_ASC_NODE":148.7064,"ARG_OF_PERICENTER":304.1556,"MEAN_ANOMALY":55.9387,"EPHEMERIS_TYPE":0,"CLASSIFICATION_TYPE":"U","NORAD_CAT_ID":60518,"ELEMENT_SET_NO":999,"REV_AT_EPOCH":8643,"BSTAR":0.00058749,"MEAN_MOTION_DOT":0.00022477,"MEAN_MOTION_DDOT":0},{"OBJECT_NAME":"FLOCK 4BE-28","OBJECT_ID":"2024-149BD","EPOCH":"2026-03-05T16:41:43.361664","MEAN_MOTION":15.40791829,"ECCENTRICITY":0.0003523,"INCLINATION":97.379,"RA_OF_ASC_NODE":149.1621,"ARG_OF_PERICENTER":303.2517,"MEAN_ANOMALY":56.8391,"EPHEMERIS_TYPE":0,"CLASSIFICATION_TYPE":"U","NORAD_CAT_ID":60519,"ELEMENT_SET_NO":999,"REV_AT_EPOCH":8648,"BSTAR":0.00067343,"MEAN_MOTION_DOT":0.00027561,"MEAN_MOTION_DDOT":0},{"OBJECT_NAME":"FLOCK 4BE-35","OBJECT_ID":"2024-149CU","EPOCH":"2026-03-05T18:04:36.721920","MEAN_MOTION":15.42792648,"ECCENTRICITY":0.0004603,"INCLINATION":97.3793,"RA_OF_ASC_NODE":147.946,"ARG_OF_PERICENTER":271.8716,"MEAN_ANOMALY":88.2004,"EPHEMERIS_TYPE":0,"CLASSIFICATION_TYPE":"U","NORAD_CAT_ID":60558,"ELEMENT_SET_NO":999,"REV_AT_EPOCH":8639,"BSTAR":0.0022464,"MEAN_MOTION_DOT":0.00099392,"MEAN_MOTION_DDOT":0},{"OBJECT_NAME":"FLOCK 4BE-5","OBJECT_ID":"2024-149CV","EPOCH":"2026-03-05T15:00:24.034752","MEAN_MOTION":15.36821928,"ECCENTRICITY":0.0002488,"INCLINATION":97.3885,"RA_OF_ASC_NODE":147.8684,"ARG_OF_PERICENTER":311.3063,"MEAN_ANOMALY":48.7966,"EPHEMERIS_TYPE":0,"CLASSIFICATION_TYPE":"U","NORAD_CAT_ID":60559,"ELEMENT_SET_NO":999,"REV_AT_EPOCH":8635,"BSTAR":0.00069689,"MEAN_MOTION_DOT":0.00025051,"MEAN_MOTION_DDOT":0},{"OBJECT_NAME":"FLOCK 4BE-12","OBJECT_ID":"2024-149CW","EPOCH":"2026-03-05T17:13:50.179296","MEAN_MOTION":15.45706277,"ECCENTRICITY":0.000573,"INCLINATION":97.3766,"RA_OF_ASC_NODE":148.621,"ARG_OF_PERICENTER":275.9896,"MEAN_ANOMALY":84.07,"EPHEMERIS_TYPE":0,"CLASSIFICATION_TYPE":"U","NORAD_CAT_ID":60560,"ELEMENT_SET_NO":999,"REV_AT_EPOCH":8645,"BSTAR":0.0023603,"MEAN_MOTION_DOT":0.00115489,"MEAN_MOTION_DDOT":0}]
